STARLINK-37164          
1 68324U 26059D   26090.66668981 -.00016237  00000+0 -78845-4 0  9998
2 68324  53.1594 252.7255 0001078  31.2670 190.1792 15.80881704  2570
